OUTPOST MISSION 2
1 58334U 23174CG  25352.62230433  .00020867  00000+0  44223-3 0  9990
2 58334  97.4099  75.4213 0007628  61.2868 298.9146 15.45082086117837